BLUEWALKER-3            
1 53807U 22111AL  26200.40152100  .00002815  00000+0  82884-4 0  9992
2 53807  53.2278 242.6898 0004640 285.1596  74.8896 15.38634996215162
